[Satellite]
VERSION=1.1
NAME=NFIRE
NICKNAME=NFIRE
TLE1=1 31140U 07014A   11059.60167907  .00002211  00000-0  64482-4 0  3889
TLE2=2 31140  48.2258 112.8559 0009586   5.3916 354.7121 15.39700525218992
